ONEWEB-0275             
1 48993U 21060AC  25192.53504871  .00000072  00000+0  15577-3 0  9990
2 48993  87.9060 296.6768 0002101 101.8466 258.2901 13.16593674196029
ONEWEB-0276             
1 48994U 21060AD  25192.56830136  .00000072  00000+0  15463-3 0  9994
2 48994  87.9057 296.6670 0002203  95.3716 264.7666 13.16595363196056
ONEWEB-0277             
1 48995U 21060AE  25192.58097727  .00000142  00000+0  33800-3 0  9991
2 48995  87.9056 296.6997 0002421 100.5690 259.5714 13.16594409196034
ONEWEB-0278             
1 48996U 21060AF  25192.19149253  .00000150  00000+0  35826-3 0  9990
2 48996  87.9057 296.7390 0001871  93.4693 266.6652 13.16594076196136
ONEWEB-0279             
1 48997U 21060AG  25191.74341782  .00000055  00000+0  11144-3 0  9993
2 48997  87.9058 296.8240 0002307 103.9110 256.2277 13.16595106194691
ONEWEB-0280             
1 48998U 21060AH  25192.29043599  .00000122  00000+0  28511-3 0  9991
2 48998  87.9060 296.7219 0002206  91.4499 268.6884 13.16595719195994
ONEWEB-0281             
1 48999U 21060AJ  25192.29596746  .00000021  00000+0  21730-4 0  9994
2 48999  87.9059 296.7184 0001939 104.8670 255.2676 13.16595975196082
ONEWEB-0282             
1 49000U 21060AK  25191.71809619 -.00000039  00000+0 -13518-3 0  9995
2 49000  87.9051 296.8456 0002139  97.7758 262.3616 13.16594557194672
